IRIDIUM 36              
1 24967U 97056C   24351.62668595  .00000848  00000+0  27791-3 0  9995
2 24967  86.3971 249.6411 0001941  83.0229 277.1190 14.37295091425997
IRIDIUM 39              
1 25042U 97069D   24351.12722463  .00001452  00000+0  37931-3 0  9993
2 25042  86.3904 289.6236 0017167 191.0272 169.0558 14.48722415422713
IRIDIUM 38              
1 25043U 97069E   24351.15666693  .00001053  00000+0  34329-3 0  9994
2 25043  86.3948 310.1831 0002512  40.3551 319.7832 14.37782355419911
IRIDIUM 42              
1 25077U 97077A   24351.42734099  .00000960  00000+0  32348-3 0  9991
2 25077  86.3952 316.0148 0002377  69.4600 290.6851 14.36043676414968
IRIDIUM 44              
1 25078U 97077B   24351.10940848  .00000991  00000+0  30905-3 0  9999
2 25078  86.3944 298.5509 0000492  66.2775 293.8475 14.39912098417381
IRIDIUM 45              
1 25104U 97082A   24351.45220841  .00020767  00000+0  93732-3 0  9997
2 25104  86.3631 136.0040 0136193 292.3241  66.3607 15.12835653424570
IRIDIUM 24              
1 25105U 97082B   24351.03877359  .00001070  00000+0  32203-3 0  9996
2 25105  86.3925 157.9368 0010388 332.4569  27.6079 14.41734482417077
IRIDIUM 51              
1 25262U 98018A   24351.68846031  .00042247  00000+0  14327-2 0  9991
2 25262  86.3908 145.0945 0115114 224.0626 135.1405 15.24136482419308
